0 THOR ABLESTAR R/B
1 00204U 61031C   13281.40606706  .00000066  00000-0  52547-4 0  4939
2 00204 032.4422 275.3563 0098740 323.1972 187.7175 13.64760200589851
0 THOR ABLESTAR R/B
1 00204U 61031C   13283.45272204  .00000051  00000-0  34597-4 0  4948
2 00204 032.4420 265.0880 0098644 338.7662 163.2194 13.64760679590131
0 THOR ABLESTAR R/B
1 00204U 61031C   13286.07213672  .00000062  00000-0  48675-4 0  4958
2 00204 032.4419 251.9465 0098572 358.7318 072.7347 13.64760849590494
0 THOR ABLESTAR R/B
1 00204U 61031C   13288.12637218  .00000092  00000-0  85239-4 0  4963
2 00204 032.4417 241.6407 0098540 014.3977 085.4460 13.64760895590774
0 THOR ABLESTAR R/B
1 00204U 61031C   13290.18028101  .00000086  00000-0  77986-4 0  4971
2 00204 032.4414 231.3365 0098503 030.0580 096.5561 13.64760979591054
0 THOR ABLESTAR R/B
1 00204U 61031C   13292.30493479  .00000076  00000-0  66318-4 0  4988
2 00204 032.4410 220.6774 0098483 046.2612 095.2422 13.64761406591347
0 THOR ABLESTAR R/B
1 00204U 61031C   13294.84677058  .00000069  00000-0  57697-4 0  4999
2 00204 032.4408 207.9250 0098499 065.6642 343.5807 13.64761856591699
